start=new Date('2022-09-09T00:00:00.000Z').valueOf();
sats=[{"CENTER_NAME":"EARTH","CLASSIFICATION_TYPE":"U","RCS_SIZE":"LARGE","FILE":"3564431","SEMIMAJOR_AXIS":"6810.648","ELEMENT_SET_NO":"999","EPHEMERIS_TYPE":"0","BSTAR":"-0.03183800000000","INCLINATION":"97.6557","RA_OF_ASC_NODE":"11.4308","LAUNCH_DATE":"2022-08-12","TIME_SYSTEM":"UTC","ECCENTRICITY":"0.00020670","GP_ID":"212095987","MEAN_MOTION_DOT":"-0.01333037","OBJECT_TYPE":"PAYLOAD","SITE":"AFWTR","OBJECT_NAME":"STARLINK-4445","MEAN_MOTION":"15.44614352","ARG_OF_PERICENTER":"68.1797","MEAN_ELEMENT_THEORY":"SGP4","REF_FRAME":"TEME","EPOCH":"2022-09-08T22:00:00.999936","TLE_LINE1":"1 53474U 22099K   22251.91667824 -.01333037  00000-0 -31838-1 0  9996","PERIAPSIS":"431.106","MEAN_ANOMALY":"82.5397","OBJECT_ID":"2022-099K","APOAPSIS":"433.921","PERIOD":"93.227","TLE_LINE2":"2 53474  97.6557  11.4308 0002067  68.1797  82.5397 15.44614352  1307","NORAD_CAT_ID":"53474","DECAY_DATE":null,"MEAN_MOTION_DDOT":"0.0000000000000","REV_AT_EPOCH":"130","COUNTRY_CODE":"US"},{"SITE":"AFWTR","OBJECT_TYPE":"PAYLOAD","OBJECT_NAME":"STARLINK-4389","MEAN_MOTION":"15.44287087","ARG_OF_PERICENTER":"62.0605","GP_ID":"212095124","MEAN_MOTION_DOT":"-0.01295966","ECCENTRICITY":"0.00019930","TIME_SYSTEM":"UTC","LAUNCH_DATE":"2022-08-12","RA_OF_ASC_NODE":"11.4337","INCLINATION":"97.6557","BSTAR":"-0.03120700000000","ELEMENT_SET_NO":"999","EPHEMERIS_TYPE":"0","SEMIMAJOR_AXIS":"6811.611","FILE":"3564431","RCS_SIZE":"LARGE","CLASSIFICATION_TYPE":"U","CENTER_NAME":"EARTH","COUNTRY_CODE":"US","REV_AT_EPOCH":"130","DECAY_DATE":null,"MEAN_MOTION_DDOT":"0.0000000000000","NORAD_CAT_ID":"53475","TLE_LINE2":"2 53475  97.6557  11.4337 0001993  62.0605  83.3224 15.44287087  1307","PERIOD":"93.247","APOAPSIS":"434.833","MEAN_ANOMALY":"83.3224","OBJECT_ID":"2022-099L","TLE_LINE1":"1 53475U 22099L   22251.91667824 -.01295966  00000-0 -31207-1 0  9995","EPOCH":"2022-09-08T22:00:00.999936","PERIAPSIS":"432.118","REF_FRAME":"TEME","MEAN_ELEMENT_THEORY":"SGP4"},{"PERIAPSIS":"433.752","TLE_LINE1":"1 53476U 22099M   22251.91667824 -.01222171  00000-0 -29840-1 0  9994","EPOCH":"2022-09-08T22:00:00.999936","REF_FRAME":"TEME","MEAN_ELEMENT_THEORY":"SGP4","REV_AT_EPOCH":"130","COUNTRY_CODE":"US","MEAN_MOTION_DDOT":"0.0000000000000","DECAY_DATE":null,"APOAPSIS":"436.628","PERIOD":"93.282","TLE_LINE2":"2 53476  97.6557  11.4350 0002110  56.7721  80.6645 15.43704269  1306","NORAD_CAT_ID":"53476","MEAN_ANOMALY":"80.6645","OBJECT_ID":"2022-099M","EPHEMERIS_TYPE":"0","ELEMENT_SET_NO":"999","BSTAR":"-0.02984000000000","INCLINATION":"97.6557","RA_OF_ASC_NODE":"11.4350","SEMIMAJOR_AXIS":"6813.325","RCS_SIZE":"LARGE","FILE":"3564431","CENTER_NAME":"EARTH","CLASSIFICATION_TYPE":"U","SITE":"AFWTR","OBJECT_TYPE":"PAYLOAD","ARG_OF_PERICENTER":"56.7721","MEAN_MOTION":"15.43704269","OBJECT_NAME":"STARLINK-4378","MEAN_MOTION_DOT":"-0.01222171","GP_ID":"212095844","ECCENTRICITY":"0.00021100","LAUNCH_DATE":"2022-08-12","TIME_SYSTEM":"UTC"},{"REF_FRAME":"TEME","TLE_LINE1":"1 53477U 22099N   22251.91667824 -.01222276  00000-0 -29197-1 0  9996","EPOCH":"2022-09-08T22:00:00.999936","PERIAPSIS":"431.934","MEAN_ELEMENT_THEORY":"SGP4","MEAN_MOTION_DDOT":"0.0000000000000","DECAY_DATE":null,"REV_AT_EPOCH":"130","COUNTRY_CODE":"US","MEAN_ANOMALY":"82.2913","OBJECT_ID":"2022-099N","APOAPSIS":"434.652","PERIOD":"93.243","TLE_LINE2":"2 53477  97.6557  11.4327 0001995  65.9272  82.2913 15.44349283  1302","NORAD_CAT_ID":"53477","SEMIMAJOR_AXIS":"6811.428","BSTAR":"-0.02919700000000","EPHEMERIS_TYPE":"0","ELEMENT_SET_NO":"999","INCLINATION":"97.6557","RA_OF_ASC_NODE":"11.4327","CENTER_NAME":"EARTH","CLASSIFICATION_TYPE":"U","RCS_SIZE":"LARGE","FILE":"3564431","GP_ID":"212095691","MEAN_MOTION_DOT":"-0.01222276","SITE":"AFWTR","OBJECT_TYPE":"PAYLOAD","ARG_OF_PERICENTER":"65.9272","MEAN_MOTION":"15.44349283","OBJECT_NAME":"STARLINK-4412","LAUNCH_DATE":"2022-08-12","TIME_SYSTEM":"UTC","ECCENTRICITY":"0.00019950"},{"FILE":"3564431","RCS_SIZE":"LARGE","CLASSIFICATION_TYPE":"U","CENTER_NAME":"EARTH","RA_OF_ASC_NODE":"11.4342","INCLINATION":"97.6557","BSTAR":"-0.02976500000000","EPHEMERIS_TYPE":"0","ELEMENT_SET_NO":"999","SEMIMAJOR_AXIS":"6813.092","ECCENTRICITY":"0.00019780","TIME_SYSTEM":"UTC","LAUNCH_DATE":"2022-08-12","SITE":"AFWTR","OBJECT_NAME":"STARLINK-4433","OBJECT_TYPE":"PAYLOAD","MEAN_MOTION":"15.43783549","ARG_OF_PERICENTER":"66.2213","GP_ID":"212096185","MEAN_MOTION_DOT":"-0.01222320","MEAN_ELEMENT_THEORY":"SGP4","PERIAPSIS":"433.609","TLE_LINE1":"1 53478U 22099P   22251.91667824 -.01222320  00000-0 -29765-1 0  9998","EPOCH":"2022-09-08T22:00:00.999936","REF_FRAME":"TEME","NORAD_CAT_ID":"53478","TLE_LINE2":"2 53478  97.6557  11.4342 0001978  66.2213  72.8700 15.43783549  1305","PERIOD":"93.277","APOAPSIS":"436.304","MEAN_ANOMALY":"72.8700","OBJECT_ID":"2022-099P","COUNTRY_CODE":"US","REV_AT_EPOCH":"130","MEAN_MOTION_DDOT":"0.0000000000000","DECAY_DATE":null},{"COUNTRY_CODE":"US","REV_AT_EPOCH":"130","DECAY_DATE":null,"MEAN_MOTION_DDOT":"0.0000000000000","TLE_LINE2":"2 53479  97.6557  11.4329 0002147  55.8660  96.9846 15.44655648  1307","NORAD_CAT_ID":"53479","APOAPSIS":"433.854","PERIOD":"93.225","MEAN_ANOMALY":"96.9846","OBJECT_ID":"2022-099Q","PERIAPSIS":"430.930","TLE_LINE1":"1 53479U 22099Q   22251.91667824 -.01221873  00000-0 -28882-1 0  9990","EPOCH":"2022-09-08T22:00:00.999936","REF_FRAME":"TEME","MEAN_ELEMENT_THEORY":"SGP4","SITE":"AFWTR","OBJECT_TYPE":"PAYLOAD","MEAN_MOTION":"15.44655648","OBJECT_NAME":"STARLINK-4436","ARG_OF_PERICENTER":"55.8660","MEAN_MOTION_DOT":"-0.01221873","GP_ID":"212095539","ECCENTRICITY":"0.00021470","TIME_SYSTEM":"UTC","LAUNCH_DATE":"2022-08-12","INCLINATION":"97.6557","RA_OF_ASC_NODE":"11.4329","EPHEMERIS_TYPE":"0","ELEMENT_SET_NO":"999","BSTAR":"-0.02888200000000","SEMIMAJOR_AXIS":"6810.527","FILE":"3564431","RCS_SIZE":"LARGE","CENTER_NAME":"EARTH","CLASSIFICATION_TYPE":"U"},{"MEAN_MOTION_DOT":"-0.01286441","GP_ID":"212096041","OBJECT_TYPE":"PAYLOAD","SITE":"AFWTR","OBJECT_NAME":"STARLINK-4442","ARG_OF_PERICENTER":"59.5318","MEAN_MOTION":"15.44309718","TIME_SYSTEM":"UTC","LAUNCH_DATE":"2022-08-12","ECCENTRICITY":"0.00021030","SEMIMAJOR_AXIS":"6811.544","RA_OF_ASC_NODE":"11.4323","INCLINATION":"97.6559","EPHEMERIS_TYPE":"0","ELEMENT_SET_NO":"999","BSTAR":"-0.03092900000000","CLASSIFICATION_TYPE":"U","CENTER_NAME":"EARTH","FILE":"3564431","RCS_SIZE":"LARGE","DECAY_DATE":null,"MEAN_MOTION_DDOT":"0.0000000000000","COUNTRY_CODE":"US","REV_AT_EPOCH":"130","MEAN_ANOMALY":"86.9539","OBJECT_ID":"2022-099R","NORAD_CAT_ID":"53480","TLE_LINE2":"2 53480  97.6559  11.4323 0002103  59.5318  86.9539 15.44309718  1300","PERIOD":"93.246","APOAPSIS":"434.842","REF_FRAME":"TEME","EPOCH":"2022-09-08T22:00:00.999936","TLE_LINE1":"1 53480U 22099R   22251.91667824 -.01286441  00000-0 -30929-1 0  9999","PERIAPSIS":"431.977","MEAN_ELEMENT_THEORY":"SGP4"},{"SEMIMAJOR_AXIS":"6809.908","EPHEMERIS_TYPE":"0","ELEMENT_SET_NO":"999","BSTAR":"-0.02867500000000","RA_OF_ASC_NODE":"11.4328","INCLINATION":"97.6557","CLASSIFICATION_TYPE":"U","CENTER_NAME":"EARTH","RCS_SIZE":"LARGE","FILE":"3564431","MEAN_MOTION_DOT":"-0.01221861","GP_ID":"212095277","MEAN_MOTION":"15.44866224","SITE":"AFWTR","OBJECT_TYPE":"PAYLOAD","OBJECT_NAME":"STARLINK-4302","ARG_OF_PERICENTER":"57.6008","LAUNCH_DATE":"2022-08-12","TIME_SYSTEM":"UTC","ECCENTRICITY":"0.00021200","REF_FRAME":"TEME","EPOCH":"2022-09-08T22:00:00.999936","TLE_LINE1":"1 53481U 22099S   22251.91667824 -.01221861  00000-0 -28675-1 0  9990","PERIAPSIS":"430.329","MEAN_ELEMENT_THEORY":"SGP4","MEAN_MOTION_DDOT":"0.0000000000000","DECAY_DATE":null,"REV_AT_EPOCH":"130","COUNTRY_CODE":"US","MEAN_ANOMALY":"98.8431","OBJECT_ID":"2022-099S","PERIOD":"93.212","APOAPSIS":"433.217","NORAD_CAT_ID":"53481","TLE_LINE2":"2 53481  97.6557  11.4328 0002120  57.6008  98.8431 15.44866224  1301"},{"MEAN_ANOMALY":"97.3335","OBJECT_ID":"2022-099T","TLE_LINE2":"2 53482  97.6558  11.4314 0002115  57.9038  97.3335 15.44879107  1309","NORAD_CAT_ID":"53482","APOAPSIS":"433.176","PERIOD":"93.211","MEAN_MOTION_DDOT":"0.0000000000000","DECAY_DATE":null,"COUNTRY_CODE":"US","REV_AT_EPOCH":"130","MEAN_ELEMENT_THEORY":"SGP4","REF_FRAME":"TEME","TLE_LINE1":"1 53482U 22099T   22251.91667824 -.01290367  00000-0 -30436-1 0  9996","PERIAPSIS":"430.295","EPOCH":"2022-09-08T22:00:00.999936","TIME_SYSTEM":"UTC","LAUNCH_DATE":"2022-08-12","ECCENTRICITY":"0.00021150","GP_ID":"212095988","MEAN_MOTION_DOT":"-0.01290367","OBJECT_NAME":"STARLINK-4360","SITE":"AFWTR","OBJECT_TYPE":"PAYLOAD","ARG_OF_PERICENTER":"57.9038","MEAN_MOTION":"15.44879107","CENTER_NAME":"EARTH","CLASSIFICATION_TYPE":"U","FILE":"3564431","RCS_SIZE":"LARGE","SEMIMAJOR_AXIS":"6809.870","INCLINATION":"97.6558","RA_OF_ASC_NODE":"11.4314","EPHEMERIS_TYPE":"0","ELEMENT_SET_NO":"999","BSTAR":"-0.03043600000000"},{"PERIOD":"93.195","APOAPSIS":"432.331","NORAD_CAT_ID":"53483","TLE_LINE2":"2 53483  97.6557  11.4302 0002052  62.4577  98.9875 15.45151976  1309","MEAN_ANOMALY":"98.9875","OBJECT_ID":"2022-099U","REV_AT_EPOCH":"130","COUNTRY_CODE":"US","MEAN_MOTION_DDOT":"0.0000000000000","DECAY_DATE":null,"MEAN_ELEMENT_THEORY":"SGP4","EPOCH":"2022-09-08T22:00:00.999936","TLE_LINE1":"1 53483U 22099U   22251.91667824 -.01221874  00000-0 -28397-1 0  9997","PERIAPSIS":"429.536","REF_FRAME":"TEME","ECCENTRICITY":"0.00020520","LAUNCH_DATE":"2022-08-12","TIME_SYSTEM":"UTC","OBJECT_TYPE":"PAYLOAD","SITE":"AFWTR","ARG_OF_PERICENTER":"62.4577","MEAN_MOTION":"15.45151976","OBJECT_NAME":"STARLINK-4401","GP_ID":"212095125","MEAN_MOTION_DOT":"-0.01221874","RCS_SIZE":"LARGE","FILE":"3564431","CLASSIFICATION_TYPE":"U","CENTER_NAME":"EARTH","BSTAR":"-0.02839700000000","EPHEMERIS_TYPE":"0","ELEMENT_SET_NO":"999","RA_OF_ASC_NODE":"11.4302","INCLINATION":"97.6557","SEMIMAJOR_AXIS":"6809.069"}];
